NORAD_CAT_ID,OBJECT_NAME,OBJECT_TYPE,EPOCH,MEAN_MOTION,ECCENTRICITY,INCLINATION,RA_OF_ASC_NODE,ARG_OF_PERICENTER,MEAN_ANOMALY,BSTAR,MEAN_MOTION_DOT,MEAN_MOTION_DDOT,TLE_LINE0,TLE_LINE1,TLE_LINE2,SEMIMAJOR_AXIS,PERIOD,APOGEE,PERIGEE,DECAYED
55648.0,STARLINK-5501,PAYLOAD,2024-03-01 14:41:48,14.98331036,0.0002999,69.9989,245.4462,271.0713,89.0102,-1.5648e-05,-2.8e-06,0.0,0 STARLINK-5501,1 55648U 23021W   24061.61237086 -.00000280  00000-0 -15648-4 0  9992,2 55648  69.9989 245.4462 0002999 271.0713  89.0102 14.98331036 58233,6950.19,96.107,574.139,569.97,0.0
55648.0,STARLINK-5501,PAYLOAD,2024-03-01 21:06:21,14.98330402,0.0002991,69.9989,244.773,270.5997,89.4819,-1.522e-05,-2.75e-06,0.0,0 STARLINK-5501,1 55648U 23021W   24061.87941106 -.00000275  00000-0 -15220-4 0  9995,2 55648  69.9989 244.7730 0002991 270.5997  89.4819 14.98330402 57978,6950.192,96.107,574.135,569.978,0.0
55648.0,STARLINK-5501,PAYLOAD,2024-03-02 14:43:49,14.98330626,0.0003007,69.9989,242.9215,268.5572,91.5242,6.309e-06,-1.8e-07,0.0,0 STARLINK-5501,1 55648U 23021W   24062.61376981 -.00000018  00000-0  63090-5 0  9994,2 55648  69.9989 242.9215 0003007 268.5572  91.5242 14.98330626 58389,6950.191,96.107,574.146,569.966,0.0
55648.0,STARLINK-5501,PAYLOAD,2024-03-02 21:08:21,14.98330782,0.0002998,69.9989,242.248,269.4694,90.6122,8.3394e-06,6e-08,0.0,0 STARLINK-5501,1 55648U 23021W   24062.88080961  .00000006  00000-0  83394-5 0  9998,2 55648  69.9989 242.2480 0002998 269.4694  90.6122 14.98330782 58424,6950.19,96.107,574.139,569.972,0.0
55648.0,STARLINK-5501,PAYLOAD,2024-03-03 05:09:02,14.98330863,0.0003006,69.9989,241.4063,269.8802,90.2013,2.7861e-05,2.39e-06,0.0,0 STARLINK-5501,1 55648U 23021W   24063.21460895  .00000239  00000-0  27861-4 0  9998,2 55648  69.9989 241.4063 0003006 269.8802  90.2013 14.98330863 58175,6950.19,96.107,574.144,569.966,0.0
55648.0,STARLINK-5501,PAYLOAD,2024-03-03 14:45:50,14.98330279,0.0003028,69.9988,240.3963,269.7634,90.3178,3.6437e-05,3.42e-06,0.0,0 STARLINK-5501,1 55648U 23021W   24063.61516880  .00000342  00000-0  36437-4 0  9992,2 55648  69.9988 240.3963 0003028 269.7634  90.3178 14.98330279 58531,6950.192,96.107,574.162,569.953,0.0
55648.0,STARLINK-5501,PAYLOAD,2024-03-03 21:10:22,14.98333652,0.0003021,69.9987,239.7229,269.7959,90.2853,6.6307e-05,6.98e-06,0.0,0 STARLINK-5501,1 55648U 23021W   24063.88220602  .00000698  00000-0  66307-4 0  9998,2 55648  69.9987 239.7229 0003021 269.7959  90.2853 14.98333652 58571,6950.182,96.107,574.146,569.947,0.0
55648.0,STARLINK-5501,PAYLOAD,2024-03-04 05:11:02,14.98332216,0.0003029,69.9987,238.8811,270.1016,89.9796,3.9334e-05,3.76e-06,0.0,0 STARLINK-5501,1 55648U 23021W   24064.21600667  .00000376  00000-0  39334-4 0  9992,2 55648  69.9987 238.8811 0003029 270.1016  89.9796 14.98332216 58325,6950.186,96.107,574.156,569.946,0.0
55648.0,STARLINK-5501,PAYLOAD,2024-03-04 14:47:51,14.9833314,0.0003031,69.9987,237.871,269.7288,90.3524,4.114e-05,3.98e-06,0.0,0 STARLINK-5501,1 55648U 23021W   24064.61656515  .00000398  00000-0  41140-4 0  9991,2 55648  69.9987 237.8710 0003031 269.7288  90.3524 14.98333140 58681,6950.183,96.107,574.155,569.942,0.0
55648.0,STARLINK-5501,PAYLOAD,2024-03-04 21:12:23,14.98333817,0.0003051,69.9989,237.1975,269.3365,90.7444,4.3582e-05,4.27e-06,0.0,0 STARLINK-5501,1 55648U 23021W   24064.88360390  .00000427  00000-0  43582-4 0  9998,2 55648  69.9989 237.1975 0003051 269.3365  90.7444 14.98333817 58724,6950.181,96.107,574.167,569.926,0.0
55648.0,STARLINK-5501,PAYLOAD,2024-03-05 14:49:52,14.98327295,0.0003009,69.9992,235.3459,269.3345,90.747,-2.5601e-05,-3.98e-06,0.0,0 STARLINK-5501,1 55648U 23021W   24065.61796987 -.00000398  00000-0 -25601-4 0  9996,2 55648  69.9992 235.3459 0003009 269.3345  90.7470 14.98327295 58830,6950.201,96.107,574.158,569.975,0.0
55648.0,STARLINK-5501,PAYLOAD,2024-03-05 21:14:24,14.98330526,0.0003016,69.9993,234.6728,269.6734,90.408,-1.0757e-05,-2.21e-06,0.0,0 STARLINK-5501,1 55648U 23021W   24065.88500761 -.00000221  00000-0 -10757-4 0  9999,2 55648  69.9993 234.6728 0003016 269.6734  90.4080 14.98330526 58571,6950.191,96.107,574.152,569.96,0.0
55648.0,STARLINK-5501,PAYLOAD,2024-03-06 13:15:45,14.98328606,0.0003006,69.9996,232.9895,269.9251,90.1564,-3.3735e-05,-4.95e-06,0.0,0 STARLINK-5501,1 55648U 23021W   24066.55260963 -.00000495  00000-0 -33735-4 0  9995,2 55648  69.9996 232.9895 0003006 269.9251  90.1564 14.98328606 58970,6950.197,96.107,574.151,569.973,0.0
55648.0,STARLINK-5501,PAYLOAD,2024-03-07 03:40:58,14.98327532,0.0002952,69.9998,231.4746,270.7179,89.3641,6.7177e-06,-1.3e-07,0.0,0 STARLINK-5501,1 55648U 23021W   24067.15344981 -.00000013  00000-0  67177-5 0  9998,2 55648  69.9998 231.4746 0002952 270.7179  89.3641 14.98327532 58769,6950.201,96.107,574.117,570.014,0.0
55648.0,STARLINK-5501,PAYLOAD,2024-03-07 14:53:54,14.98328964,0.0002993,69.9995,230.2964,270.2347,89.8469,5.6021e-05,5.75e-06,0.0,0 STARLINK-5501,1 55648U 23021W   24067.62076814  .00000575  00000-0  56021-4 0  9994,2 55648  69.9995 230.2964 0002993 270.2347  89.8469 14.98328964 59137,6950.196,96.107,574.141,569.981,0.0
55648.0,STARLINK-5501,PAYLOAD,2024-03-08 03:42:58,14.98331147,0.0002993,69.9997,228.9498,270.5944,89.4873,5.8403e-05,6.04e-06,0.0,0 STARLINK-5501,1 55648U 23021W   24068.15484673  .00000604  00000-0  58403-4 0  9998,2 55648  69.9997 228.9498 0002993 270.5944  89.4873 14.98331147 58918,6950.189,96.107,574.135,569.974,0.0
55648.0,STARLINK-5501,PAYLOAD,2024-03-08 11:43:38,14.98331778,0.000301,69.9996,228.1082,270.4687,89.6127,6.8565e-05,7.25e-06,0.0,0 STARLINK-5501,1 55648U 23021W   24068.48864572  .00000725  00000-0  68565-4 0  9998,2 55648  69.9996 228.1082 0003010 270.4687  89.6127 14.98331778 59265,6950.187,96.107,574.144,569.96,0.0
55648.0,STARLINK-5501,PAYLOAD,2024-03-08 16:32:03,14.98332615,0.0003008,69.9996,227.6034,269.4374,90.644,7.4255e-05,7.93e-06,0.0,0 STARLINK-5501,1 55648U 23021W   24068.68892468  .00000793  00000-0  74255-4 0  9993,2 55648  69.9996 227.6034 0003008 269.4374  90.6440 14.98332615 59298,6950.185,96.107,574.14,569.959,0.0
55648.0,STARLINK-5501,PAYLOAD,2024-03-09 03:44:59,14.98331298,0.0003059,69.9997,226.4252,271.4961,88.5847,4.0258e-05,3.87e-06,0.0,0 STARLINK-5501,1 55648U 23021W   24069.15624551  .00000387  00000-0  40258-4 0  9997,2 55648  69.9997 226.4252 0003059 271.4961  88.5847 14.98331298 59067,6950.189,96.107,574.18,569.928,0.0
55648.0,STARLINK-5501,PAYLOAD,2024-03-09 11:45:40,14.98329387,0.000298,69.9998,225.5837,271.5068,88.5749,-1.066e-05,-2.2e-06,0.0,0 STARLINK-5501,1 55648U 23021W   24069.49004829 -.00000220  00000-0 -10660-4 0  9996,2 55648  69.9998 225.5837 0002980 271.5068  88.5749 14.98329387 59414,6950.195,96.107,574.131,569.989,0.0
55648.0,STARLINK-5501,PAYLOAD,2024-03-09 16:34:04,14.98330587,0.0002983,69.9999,225.0788,271.6554,88.4263,-2.0503e-06,-1.17e-06,0.0,0 STARLINK-5501,1 55648U 23021W   24069.69032705 -.00000117  00000-0 -20503-5 0  9995,2 55648  69.9999 225.0788 0002983 271.6554  88.4263 14.98330587 59446,6950.191,96.107,574.129,569.983,0.0
55648.0,STARLINK-5501,PAYLOAD,2024-03-10 11:47:44,14.98299307,0.0003156,69.9988,223.0591,275.3471,84.7328,-0.00033288,-4.059e-05,0.0,0 STARLINK-5501,1 55648U 23021W   24070.49148708 -.00004059  00000-0 -33288-3 0  9997,2 55648  69.9988 223.0591 0003156 275.3471  84.7328 14.98299307 59261,6950.288,96.109,574.346,569.959,0.0
55648.0,STARLINK-5501,PAYLOAD,2024-03-10 19:48:22,14.98328247,0.000308,70.0,222.217,272.0297,88.0509,3.9849e-05,3.82e-06,0.0,0 STARLINK-5501,1 55648U 23021W   24070.82526377  .00000382  00000-0  39849-4 0  9999,2 55648  70.0000 222.2170 0003080 272.0297  88.0509 14.98328247 59319,6950.198,96.107,574.204,569.923,0.0
55648.0,STARLINK-5501,PAYLOAD,2024-03-11 13:25:50,14.98335634,0.0003248,69.9996,220.3651,270.9804,89.0983,0.00020047,2.3e-05,0.0,0 STARLINK-5501,1 55648U 23021W   24071.55961477  .00002300  00000-0  20047-3 0  9995,2 55648  69.9996 220.3651 0003248 270.9804  89.0983 14.98335634 59427,6950.175,96.107,574.298,569.783,0.0
55648.0,STARLINK-5501,PAYLOAD,2024-03-12 16:40:07,14.98348048,0.00033,69.9994,217.5042,271.1443,88.9338,0.00013418,1.509e-05,0.0,0 STARLINK-5501,1 55648U 23021W   24072.69452689  .00001509  00000-0  13418-3 0  9995,2 55648  69.9994 217.5042 0003300 271.1443  88.9338 14.98348048 59591,6950.137,96.106,574.296,569.709,0.0
55648.0,STARLINK-5501,PAYLOAD,2024-03-13 11:53:44,14.98339072,0.0003131,69.9998,215.4842,271.5778,88.5022,-0.00011038,-1.41e-05,0.0,0 STARLINK-5501,1 55648U 23021W   24073.49565141 -.00001410  00000-0 -11038-3 0  9991,2 55648  69.9998 215.4842 0003131 271.5778  88.5022 14.98339072 59714,6950.165,96.106,574.206,569.854,0.0
55648.0,STARLINK-5501,PAYLOAD,2024-03-13 19:54:24,14.98341746,0.0002618,69.9999,214.6431,257.2489,102.8378,-7.7836e-05,-1.022e-05,0.0,0 STARLINK-5501,1 55648U 23021W   24073.82944598 -.00001022  00000-0 -77836-4 0  9993,2 55648  69.9999 214.6431 0002618 257.2489 102.8378 14.98341746 60064,6950.157,96.106,573.841,570.202,0.0
55648.0,STARLINK-5501,PAYLOAD,2024-03-14 11:55:44,14.98337477,0.0002884,70.0001,212.9606,268.3522,91.7306,-0.00012169,-1.545e-05,0.0,0 STARLINK-5501,1 55648U 23021W   24074.49704541 -.00001545  00000-0 -12169-3 0  9996,2 55648  70.0001 212.9606 0002884 268.3522  91.7306 14.98337477 59861,6950.17,96.107,574.039,570.03,0.0
55648.0,STARLINK-5501,PAYLOAD,2024-03-14 18:20:16,14.98337498,0.0002883,70.0001,212.2872,268.6756,91.4073,-0.00011061,-1.413e-05,0.0,0 STARLINK-5501,1 55648U 23021W   24074.76408379 -.00001413  00000-0 -11061-3 0  9990,2 55648  70.0001 212.2872 0002883 268.6756  91.4073 14.98337498 60201,6950.17,96.107,574.038,570.031,0.0
55648.0,STARLINK-5501,PAYLOAD,2024-03-15 11:57:45,14.98331161,0.0002964,69.9995,210.4344,268.9344,91.1475,8.7672e-06,1.2e-07,0.0,0 STARLINK-5501,1 55648U 23021W   24075.49844210  .00000012  00000-0  87672-5 0  9994,2 55648  69.9995 210.4344 0002964 268.9344  91.1475 14.98331161 60013,6950.189,96.107,574.114,569.994,0.0
